DUBAISAT-1              
1 35682U 09041B   26196.37452723  .00000372  00000+0  62663-4 0  9993
2 35682  98.0085 329.3291 0009938 348.0704  12.0269 14.75166779909258
OCEANSAT-2              
1 35931U 09051A   26196.86547365 -.00000066  00000+0 -19510-4 0  9997
2 35931  98.2320 180.8537 0017386 151.5573 208.6546 13.99655980883343
WORLDVIEW-2 (WV-2)      
1 35946U 09055A   26196.76359101  .00000042  00000+0  28321-4 0  9997
2 35946  98.4756 269.8241 0005337 128.4434 231.7232 14.37907023879756
SMOS                    
1 36036U 09059A   26196.75238375  .00000125  00000+0  53837-4 0  9992
2 36036  98.4429  23.6687 0001162  97.3009 262.8311 14.39736269877562
YAOGAN-7                
1 36110U 09069A   26196.25148093  .00000200  00000+0  34958-4 0  9995
2 36110  98.0033  81.9406 0023497 311.1420  48.7762 14.78035538893773
TANDEM-X                
1 36605U 10030A   26188.47915494  .00000386  00000+0  21566-4 0  9992
2 36605  97.4457 195.8973 0001887  94.3019 265.8431 15.19154052889726
CARTOSAT-2B             
1 36795U 10035A   26196.82914672 -.00000179  00000+0 -17215-4 0  9990
2 36795  97.9942 247.1929 0012694  97.8281 262.4371 14.78649993864084
YAOGAN-10               
1 36834U 10038A   26196.85763198  .00001266  00000+0  15318-3 0  9992
2 36834  97.8968 220.0332 0001690  82.1139  41.5448 14.85432243861462
COSMO-SKYMED 4          
1 37216U 10060A   26196.79817617  .00000570  00000+0  78195-4 0  9991
2 37216  97.8885  19.9838 0001483  85.9761 274.1622 14.82149709848803
RESOURCESAT-2           
1 37387U 11015A   26196.73482780 -.00000002  00000+0  19282-4 0  9997
2 37387  98.7632 263.9774 0011583 169.5443 190.5977 14.21599582790238
HAIYANG-2A              
1 37781U 11043A   26196.87664899 -.00000198  00000+0 -16633-3 0  9997
2 37781  99.3395 198.8951 0002319  21.2055 338.9189 13.73273497750590
RASAT                   
1 37791U 11044D   26196.87586008  .00000177  00000+0  39095-4 0  9997
2 37791  98.0587 287.8352 0021918 100.6956 353.7549 14.68192940797394
SRMSAT                  
1 37841U 11058D   26196.43842265  .00000333  00000+0  37014-4 0  9993
2 37841  19.9710 248.4743 0011765 153.8769 331.6515 14.11581130761815
PLEIADES 1A             
1 38012U 11076F   26196.87550067  .00000022  00000+0  14579-4 0  9994
2 38012  98.1975 271.5914 0001676  79.0015  11.8611 14.58546616776178
ZIYUAN 1-02C (ZY 1-02C) 
1 38038U 11079A   26196.88278218  .00000094  00000+0  45136-4 0  9993
2 38038  98.4065 263.5898 0005621 212.5373 235.7197 14.38235522763335
ARIRANG-3 (KOMPSAT-3)   
1 38338U 12025B   26196.84173586  .00000180  00000+0  44984-4 0  9992
2 38338  98.1185 153.8101 0006186  37.1542 323.0087 14.62229312755531
EXACTVIEW-1 (ADS-1B)    
1 38709U 12039C   26196.81850603  .00000035  00000+0  34895-4 0  9997
2 38709  98.9806 314.8592 0011955  89.9255 270.3294 14.24992305726786
SPOT 6                  
1 38755U 12047A   26196.80498501 -.00000039  00000+0  14315-5 0  9992
2 38755  98.2112 263.7767 0001112  85.7875 274.3451 14.58538462737229
PLEIADES 1B             
1 39019U 12068A   26196.82358279 -.00000030  00000+0  33292-5 0  9994
2 39019  98.1945 271.4793 0001575  78.7619 281.3757 14.58534021725021
GOKTURK 2               
1 39030U 12073A   26196.83324581  .00000285  00000+0  48778-4 0  9998
2 39030  97.6803  32.8277 0000938  94.3851 265.7466 14.75568481728731
LANDSAT 8               
1 39084U 13008A   26196.79741948  .00000150  00000+0  43494-4 0  9992
2 39084  98.2285 266.5910 0001453  89.1374 270.9991 14.57094027702065
SARAL                   
1 39086U 13009A   26196.81077993  .00000019  00000+0  22867-4 0  9995
2 39086  98.5555  23.0161 0001736 165.1508 194.9727 14.32895889699708
GAOFEN-1                
1 39150U 13018A   26196.86430236 -.00000057  00000+0 -88088-6 0  9998
2 39150  97.9091 268.3475 0017093 168.9795 191.1792 14.76518212712473
VNREDSAT 1              
1 39160U 13021B   26196.84600906  .00000021  00000+0  12418-4 0  9995
2 39160  97.9068 249.1600 0001592  79.1219 281.0164 14.64883198704485
ARIRANG-5 (KOMPSAT-5)   
1 39227U 13042A   26196.83112391  .00000473  00000+0  38107-4 0  9991
2 39227  97.6203  23.1293 0005372  56.4635 303.7103 15.04496170708164
SKYSAT-A                
1 39418U 13066C   26196.09964842  .00001524  00000+0  89294-4 0  9994
2 39418  97.3805 244.6073 0020508 213.8194 146.1731 15.13115170692700
DUBAISAT-2              
1 39419U 13066D   26196.89148713  .00001405  00000+0  89377-4 0  9994
2 39419  97.4576 186.2889 0009286 300.4589  59.5723 15.10377865690720
GPM-CORE                
1 39574U 14009C   26196.75810105  .00003360  00000+0  76131-4 0  9996
2 39574  64.9691 212.3998 0010943 262.3042  97.6856 15.45047476702222
SENTINEL-1A             
1 39634U 14016A   26196.89318988 -.00000078  00000+0 -68999-5 0  9997
2 39634  98.1768 204.0067 0001417  86.4255 273.7107 14.59195744654201
KAZEOSAT 1              
1 39731U 14024A   26196.81663884  .00000002  00000+0  13604-4 0  9991
2 39731  98.3203 268.5497 0001229  82.2359 277.8970 14.42037121642685
ALOS-2                  
1 39766U 14029A   26196.88313580 -.00000054  00000+0 -40973-6 0  9996
2 39766  97.9234 293.6364 0001570  90.9720 269.1671 14.79466287655822
