OBJECT_NAME,OBJECT_ID,EPOCH,MEAN_MOTION,ECCENTRICITY,INCLINATION,RA_OF_ASC_NODE,ARG_OF_PERICENTER,MEAN_ANOMALY,EPHEMERIS_TYPE,CLASSIFICATION_TYPE,NORAD_CAT_ID,ELEMENT_SET_NO,REV_AT_EPOCH,BSTAR,MEAN_MOTION_DOT,MEAN_MOTION_DDOT
DUBAISAT-1,2009-041B,2026-07-15T08:59:19.152672,14.75166779,.00099383,98.0085,329.3291,348.0704,12.0269,0,U,35682,999,90925,.6266315E-4,.372E-5,0
OCEANSAT-2,2009-051A,2026-07-15T20:46:16.923360,13.99655980,.0017386,98.2320,180.8537,151.5573,208.6546,0,U,35931,999,88334,-.1951E-4,-.66E-6,0
WORLDVIEW-2 (WV-2),2009-055A,2026-07-15T18:19:34.263264,14.37907023,.0005337,98.4756,269.8241,128.4434,231.7232,0,U,35946,999,87975,.28321E-4,.42E-6,0
SMOS,2009-059A,2026-07-15T18:03:25.956000,14.39736269,.0001162,98.4429,23.6687,97.3009,262.8311,0,U,36036,999,87756,.53837E-4,.125E-5,0
YAOGAN-7,2009-069A,2026-07-15T06:02:07.952352,14.78035538,.00234971,98.0033,81.9406,311.1420,48.7762,0,U,36110,999,89377,.34957606E-4,.2E-5,0
TANDEM-X,2010-030A,2026-07-07T11:29:58.986816,15.19154052,.0001887,97.4457,195.8973,94.3019,265.8431,0,U,36605,999,88972,.21566E-4,.386E-5,0
CARTOSAT-2B,2010-035A,2026-07-15T19:53:58.276608,14.78649993,.0012694,97.9942,247.1929,97.8281,262.4371,0,U,36795,999,86408,-.17215E-4,-.179E-5,0
YAOGAN-10,2010-038A,2026-07-15T20:34:59.403072,14.85432243,.000169,97.8968,220.0332,82.1139,41.5448,0,U,36834,999,86146,.15318E-3,.1266E-4,0
COSMO-SKYMED 4,2010-060A,2026-07-15T19:09:22.421088,14.82149709,.0001483,97.8885,19.9838,85.9761,274.1622,0,U,37216,999,84880,.78195E-4,.57E-5,0
RESOURCESAT-2,2011-015A,2026-07-15T17:38:09.121920,14.21599582,.0011583,98.7632,263.9774,169.5443,190.5977,0,U,37387,999,79023,.19282E-4,-.2E-7,0
HAIYANG-2A,2011-043A,2026-07-15T21:02:22.472736,13.73273497,.0002319,99.3395,198.8951,21.2055,338.9189,0,U,37781,999,75059,-.16633E-3,-.198E-5,0
RASAT,2011-044D,2026-07-15T21:01:14.310912,14.68192940,.0021918,98.0587,287.8352,100.6956,353.7549,0,U,37791,999,79739,.39095E-4,.177E-5,0
SRMSAT,2011-058D,2026-07-15T10:31:19.716960,14.11581130,.00117659,19.9710,248.4743,153.8769,331.6515,0,U,37841,999,76181,.37014491E-4,.333E-5,0
PLEIADES 1A,2011-076F,2026-07-15T21:00:43.257888,14.58546616,.0001676,98.1975,271.5914,79.0015,11.8611,0,U,38012,999,77617,.14579E-4,.22E-6,0
ZIYUAN 1-02C (ZY 1-02C),2011-079A,2026-07-15T21:11:12.380352,14.38235522,.0005621,98.4065,263.5898,212.5373,235.7197,0,U,38038,999,76333,.45136E-4,.94E-6,0
ARIRANG-3 (KOMPSAT-3),2012-025B,2026-07-15T20:12:05.978304,14.62229312,.0006186,98.1185,153.8101,37.1542,323.0087,0,U,38338,999,75553,.44984E-4,.18E-5,0
EXACTVIEW-1 (ADS-1B),2012-039C,2026-07-15T19:38:38.920992,14.24992305,.0011955,98.9806,314.8592,89.9255,270.3294,0,U,38709,999,72678,.34895E-4,.35E-6,0
SPOT 6,2012-047A,2026-07-15T19:19:10.704864,14.58538462,.0001112,98.2112,263.7767,85.7875,274.3451,0,U,38755,999,73722,.14315E-5,-.39E-6,0
PLEIADES 1B,2012-068A,2026-07-15T19:45:57.553056,14.58534021,.0001575,98.1945,271.4793,78.7619,281.3757,0,U,39019,999,72502,.33292E-5,-.3E-6,0
GOKTURK 2,2012-073A,2026-07-15T19:59:52.437984,14.75568481,.0000938,97.6803,32.8277,94.3851,265.7466,0,U,39030,999,72873,.48778E-4,.285E-5,0
LANDSAT 8,2013-008A,2026-07-15T19:08:17.043072,14.57094027,.0001453,98.2285,266.5910,89.1374,270.9991,0,U,39084,999,70206,.43494E-4,.15E-5,0
SARAL,2013-009A,2026-07-15T19:27:31.385952,14.32895889,.0001736,98.5555,23.0161,165.1508,194.9727,0,U,39086,999,69970,.22867E-4,.19E-6,0
GAOFEN-1,2013-018A,2026-07-15T20:44:35.723904,14.76518212,.0017093,97.9091,268.3475,168.9795,191.1792,0,U,39150,999,71247,-.88088E-6,-.57E-6,0
VNREDSAT 1,2013-021B,2026-07-15T20:18:15.182784,14.64883198,.0001592,97.9068,249.1600,79.1219,281.0164,0,U,39160,999,70448,.12418E-4,.21E-6,0
ARIRANG-5 (KOMPSAT-5),2013-042A,2026-07-15T19:56:49.105824,15.04496170,.0005372,97.6203,23.1293,56.4635,303.7103,0,U,39227,999,70816,.38107E-4,.473E-5,0
SKYSAT-A,2013-066C,2026-07-15T02:23:29.623488,15.13115170,.00205081,97.3805,244.6073,213.8194,146.1731,0,U,39418,999,69270,.89294429E-4,.1524E-4,0
DUBAISAT-2,2013-066D,2026-07-15T21:23:44.488032,15.10377865,.0009286,97.4576,186.2889,300.4589,59.5723,0,U,39419,999,69072,.89377E-4,.1405E-4,0
GPM-CORE,2014-009C,2026-07-15T18:11:39.930720,15.45047476,.0010943,64.9691,212.3998,262.3042,97.6856,0,U,39574,999,70222,.76131E-4,.336E-4,0
SENTINEL-1A,2014-016A,2026-07-15T21:26:11.605632,14.59195744,.0001417,98.1768,204.0067,86.4255,273.7107,0,U,39634,999,65420,-.68999E-5,-.78E-6,0
KAZEOSAT 1,2014-024A,2026-07-15T19:35:57.595776,14.42037121,.0001229,98.3203,268.5497,82.2359,277.8970,0,U,39731,999,64268,.13604E-4,.2E-7,0
ALOS-2,2014-029A,2026-07-15T21:11:42.933120,14.79466287,.000157,97.9234,293.6364,90.9720,269.1671,0,U,39766,999,65582,-.40973E-6,-.54E-6,0
